XRISM                   
1 57800U 23137A   24084.55338721  .00011345  00000+0  88261-3 0  9999
2 57800  31.0030 190.8801 0010127  90.8865 269.2931 15.00038054 29888
